NOAA 15                 
1 25338U 98030A   24177.86340939  .00000298  00000+0  14120-3 0  9993
2 25338  98.5677 204.8088 0009200 303.0476  56.9821 14.26611013358427
NOAA 16                 
1 26536U 00055A   24177.86006155  .00000119  00000+0  84903-4 0  9992
2 26536  98.5305 217.0613 0009951 205.1670 154.9020 14.13591739521809
NOAA 17                 
1 27453U 02032A   24177.91205741  .00000215  00000+0  10980-3 0  9996
2 27453  98.7632 128.4981 0010579 285.6819  74.3193 14.25599119144194
NOAA 18                 
1 28654U 05018A   24177.91637120  .00000277  00000+0  17143-3 0  9993
2 28654  98.8744 254.8089 0014823  42.6121 317.6198 14.13238067984402
NOAA 19                 
1 33591U 09005A   24177.86897592  .00000259  00000+0  16316-3 0  9995
2 33591  99.0466 233.7598 0012750 267.2258  92.7454 14.13033359792596
SUOMI NPP               
1 37849U 11061A   24177.92344720  .00000140  00000+0  86940-4 0  9997
2 37849  98.7223 115.7727 0000541 128.2598 231.8627 14.19521161656118
NOAA 20 (JPSS-1)        
1 43013U 17073A   24177.87032562  .00000112  00000+0  73907-4 0  9996
2 43013  98.7064 115.6471 0001305 130.5292 229.5998 14.19599786342139
NOAA 21 (JPSS-2)        
1 54234U 22150A   24177.90591955  .00000121  00000+0  78219-4 0  9996
2 54234  98.7518 115.6975 0001872  98.9531 261.1857 14.19529842 84215
ISS (ZARYA)             
1 25544U 98067A   24177.72895521  .00017345  00000+0  31340-3 0  9993
2 25544  51.6415 272.9775 0010887   7.1117  90.7739 15.49748715459873
CSS (TIANHE)            
1 48274U 21035A   24176.00600260  .00037052  00000+0  40668-3 0  9993
2 48274  41.4689  41.5341 0005055 269.9303  90.0957 15.62463306180166
ISS (NAUKA)             
1 49044U 21066A   24177.71144242  .00017093  00000+0  30898-3 0  9992
2 49044  51.6392 273.0710 0010898   6.0660 354.0458 15.49748145165945
FREGAT DEB              
1 49271U 11037PF  24177.58662165  .00035987  00000+0  70407-1 0  9995
2 49271  51.6807 323.8762 1004440 142.9993 224.4606 12.17549964136229
CSS (WENTIAN)           
1 53239U 22085A   24176.00600260  .00037052  00000+0  40668-3 0  9996
2 53239  41.4689  41.5341 0005055 269.9303  90.0957 15.62463306102471
CSS (MENGTIAN)          
1 54216U 22143A   24176.00600260  .00037052  00000+0  40668-3 0  9997
2 54216  41.4689  41.5341 0005055 269.9303  90.0957 15.62463306 93623
ISS DEB                 
1 58229U 98067WC  24177.57298045  .03271444  12128-4  76335-3 0  9997
2 58229  51.6123 241.8298 0010288 335.9463  24.1077 16.28863995 37055
BEAK                    
1 58612U 98067WD  24177.45301357  .01547757  11788-4  96138-3 0  9996
2 58612  51.6206 247.8876 0013391 342.4511  17.6042 16.16979696 29914
TIANZHOU-7              
1 58811U 24013A   24176.00600260  .00037052  00000+0  40668-3 0  9990
2 58811  41.4689  41.5341 0005055 269.9303  90.0957 15.62463306179713
CYGNUS NG-20            
1 58898U 24021A   24177.71144242  .00017093  00000+0  30898-3 0  9993
2 58898  51.6392 273.0710 0010898   6.0660 354.0458 15.49748145 22786
PROGRESS-MS 26          
1 58961U 24029A   24177.71144242  .00017093  00000+0  30898-3 0  9992
2 58961  51.6392 273.0710 0010898   6.0660 354.0458 15.49748145 20392
CREW DRAGON 8           
1 59097U 24042A   24177.71144242  .00017093  00000+0  30898-3 0  9998
2 59097  51.6392 273.0710 0010898   6.0660 354.0458 15.49748145 17591
SOYUZ-MS 25             
1 59294U 24055A   24177.71144242  .00017093  00000+0  30898-3 0  9991
2 59294  51.6392 273.0710 0010898   6.0660 354.0458 15.49748145 14597
MICROORBITER-1          
1 59483U 98067WF  24177.56998841  .00132540  00000+0  11681-2 0  9993
2 59483  51.6316 269.1124 0011275 338.5046  21.5475 15.67719640 11791
CURTIS                  
1 59507U 98067WG  24177.77922437  .00086444  00000+0  90607-3 0  9998
2 59507  51.6323 269.0107 0008393 340.3401  19.7269 15.63616711 11824
KASHIWA                 
1 59508U 98067WH  24176.50948796  .00147861  00000+0  11941-2 0  9999
2 59508  51.6304 274.0232 0012292 335.9526  24.0896 15.69773777 11647
1998-067WJ              
1 59559U 98067WJ  24177.76779196  .00080308  00000+0  89034-3 0  9991
2 59559  51.6348 269.6990 0008065 321.2956  38.7460 15.62214870 10689
1998-067WK              
1 59560U 98067WK  24177.52535002  .00208628  00000+0  15119-2 0  9992
2 59560  51.6319 268.8142 0014740 329.7684  30.2462 15.72113746 10597
1998-067WL              
1 59561U 98067WL  24177.56903730  .00035308  00000+0  49060-3 0  9990
2 59561  51.6358 272.1220 0005032 327.8718  32.1966 15.56643792 10600
BURSTCUBE               
1 59562U 98067WM  24177.51389758  .00086994  00000+0  95476-3 0  9993
2 59562  51.6354 271.0057 0008702 343.3577  16.7130 15.62434618 10621
SNOOPI                  
1 59563U 98067WN  24177.48607427  .00076006  00000+0  89665-3 0  9992
2 59563  51.6364 271.5721 0007295 343.7045  16.3712 15.60635095 10606
SHENZHOU-18 (SZ-18)     
1 59591U 24078A   24176.00600260  .00037052  00000+0  40668-3 0  9997
2 59591  41.4689  41.5341 0005055 269.9303  90.0957 15.62463306  8811
1998-067WP              
1 59596U 98067WP  24177.51728538  .00108769  00000+0  10672-2 0  9992
2 59596  51.6332 270.2711 0009780 325.2831  34.7525 15.65169302 10661
1998-067WQ              
1 59597U 98067WQ  24177.57802055  .00112740  00000+0  10974-2 0  9995
2 59597  51.6362 269.9377 0009916 325.4852  34.5498 15.65350685 10645
SZ-17 MODULE            
1 59624U 23164C   24177.76688169  .00035597  00000+0  33947-3 0  9991
2 59624  41.4775  30.4187 0007922 308.0544  51.9582 15.66008868  8885
PROGRESS-MS 27          
1 59913U 24103A   24177.71144242  .00017093  00000+0  30898-3 0  9993
2 59913  51.6392 273.0710 0010898   6.0660 354.0458 15.49748145  4033
STARLINER CFT-1         
1 59968U 24109A   24177.71144242  .00017093  00000+0  30898-3 0  9999
2 59968  51.6392 273.0710 0010898   6.0660 354.0458 15.49748145  3098
